[{"OBJECT_NAME":"JILIN-1 GAOFEN 3H","OBJECT_ID":"2020-065G","EPOCH":"2026-03-09T22:15:22.722912","MEAN_MOTION":15.56370311,"ECCENTRICITY":0.00069658,"INCLINATION":97.2405,"RA_OF_ASC_NODE":119.9389,"ARG_OF_PERICENTER":3.7772,"MEAN_ANOMALY":356.3535,"EPHEMERIS_TYPE":0,"CLASSIFICATION_TYPE":"U","NORAD_CAT_ID":46460,"ELEMENT_SET_NO":999,"REV_AT_EPOCH":30439,"BSTAR":0.00074007924,"MEAN_MOTION_DOT":0.00052385,"MEAN_MOTION_DDOT":0},{"OBJECT_NAME":"STARLINK-2343","OBJECT_ID":"2021-021AA","EPOCH":"2026-03-10T00:00:02.999808","MEAN_MOTION":15.26280353,"ECCENTRICITY":0.0001319,"INCLINATION":53.1422,"RA_OF_ASC_NODE":279.4171,"ARG_OF_PERICENTER":82.2814,"MEAN_ANOMALY":282.8013,"EPHEMERIS_TYPE":0,"CLASSIFICATION_TYPE":"U","NORAD_CAT_ID":47884,"ELEMENT_SET_NO":999,"REV_AT_EPOCH":579,"BSTAR":0.057497756,"MEAN_MOTION_DOT":0.01671594,"MEAN_MOTION_DDOT":0}]
